NORAD_CAT_ID,OBJECT_NAME,OBJECT_TYPE,EPOCH,MEAN_MOTION,ECCENTRICITY,INCLINATION,RA_OF_ASC_NODE,ARG_OF_PERICENTER,MEAN_ANOMALY,BSTAR,MEAN_MOTION_DOT,MEAN_MOTION_DDOT,TLE_LINE0,TLE_LINE1,TLE_LINE2,SEMIMAJOR_AXIS,PERIOD,APOGEE,PERIGEE,DECAYED
53902.0,STARLINK-5021,PAYLOAD,2023-09-11 13:52:51,15.08831494,0.0001399,53.2207,39.5291,98.179,261.9361,-2.6912e-05,-7.16e-06,0.0,0 STARLINK-5021,1 53902U 22119S   23254.57837796 -.00000716  00000-0 -26912-4 0  9992,2 53902  53.2207  39.5291 0001399  98.1790 261.9361 15.08831494 54993,6917.906,95.438,540.739,538.804,0.0
53902.0,STARLINK-5021,PAYLOAD,2023-09-11 17:03:37,15.08837478,0.0001393,53.2201,38.9346,96.2439,263.8711,3.7203e-06,-2.29e-06,0.0,0 STARLINK-5021,1 53902U 22119S   23254.71085379 -.00000229  00000-0  37203-5 0  9994,2 53902  53.2201  38.9346 0001393  96.2439 263.8711 15.08837478 54598,6917.888,95.438,540.717,538.789,0.0
53902.0,STARLINK-5021,PAYLOAD,2023-09-12 13:43:38,15.0883614,0.0001204,53.219,35.067,88.8128,271.3002,5.4015e-05,5.72e-06,0.0,0 STARLINK-5021,1 53902U 22119S   23255.57197500  .00000572  00000-0  54015-4 0  9998,2 53902  53.2190  35.0670 0001204  88.8128 271.3002 15.08836140 55140,6917.892,95.438,540.59,538.924,0.0
53902.0,STARLINK-5021,PAYLOAD,2023-09-12 16:54:24,15.08844397,0.0001179,53.2187,34.4721,88.1737,271.939,6.8173e-05,7.97e-06,0.0,0 STARLINK-5021,1 53902U 22119S   23255.70444967  .00000797  00000-0  68173-4 0  9994,2 53902  53.2187  34.4721 0001179  88.1737 271.9390 15.08844397 55167,6917.867,95.437,540.548,538.916,0.0
53902.0,STARLINK-5021,PAYLOAD,2023-09-13 02:26:43,15.08846254,0.0001177,53.2192,32.6877,93.9201,266.1926,8.5428e-05,1.072e-05,0.0,0 STARLINK-5021,1 53902U 22119S   23256.10188687  .00001072  00000-0  85428-4 0  9992,2 53902  53.2192  32.6877 0001177  93.9201 266.1926 15.08846254 54808,6917.861,95.437,540.541,538.912,0.0
53902.0,STARLINK-5021,PAYLOAD,2023-09-13 13:34:24,15.0884462,0.0001187,53.2188,30.6069,89.5049,270.6079,0.00016981,2.416e-05,0.0,0 STARLINK-5021,1 53902U 22119S   23256.56556499  .00002416  00000-0  16981-3 0  9992,2 53902  53.2188  30.6069 0001187  89.5049 270.6079 15.08844620 55294,6917.866,95.437,540.552,538.91,0.0
53902.0,STARLINK-5021,PAYLOAD,2023-09-13 16:45:10,15.08853322,0.0001263,53.219,30.0124,84.4673,275.6463,0.00016105,2.277e-05,0.0,0 STARLINK-5021,1 53902U 22119S   23256.69803989  .00002277  00000-0  16105-3 0  9998,2 53902  53.2190  30.0124 0001263  84.4673 275.6463 15.08853322 55319,6917.84,95.437,540.578,538.831,0.0
53902.0,STARLINK-5021,PAYLOAD,2023-09-14 08:39:03,15.08831117,0.0001444,53.2193,27.0386,83.5677,276.548,1.2472e-05,-8.9e-07,0.0,0 STARLINK-5021,1 53902U 22119S   23257.36046061 -.00000089  00000-0  12472-4 0  9997,2 53902  53.2193  27.0386 0001444  83.5677 276.5480 15.08831117 54993,6917.908,95.438,540.771,538.774,0.0
53902.0,STARLINK-5021,PAYLOAD,2023-09-14 13:25:13,15.08833313,0.0001279,53.2188,26.1465,79.2318,280.8818,-6.0855e-05,-1.256e-05,0.0,0 STARLINK-5021,1 53902U 22119S   23257.55918249 -.00001256  00000-0 -60855-4 0  9990,2 53902  53.2188  26.1465 0001279  79.2318 280.8818 15.08833313 55449,6917.901,95.438,540.651,538.881,0.0
53902.0,STARLINK-5021,PAYLOAD,2023-09-14 15:00:36,15.08833186,0.0001277,53.2191,25.8492,85.9371,274.1767,-6.1473e-05,-1.266e-05,0.0,0 STARLINK-5021,1 53902U 22119S   23257.62542264 -.00001266  00000-0 -61473-4 0  9996,2 53902  53.2191  25.8492 0001277  85.9371 274.1767 15.08833186 55458,6917.901,95.438,540.65,538.883,0.0
53902.0,STARLINK-5021,PAYLOAD,2023-09-15 13:15:59,15.08845013,0.0001507,53.2196,21.6896,65.4106,294.7043,-6.8509e-06,-3.97e-06,0.0,0 STARLINK-5021,1 53902U 22119S   23258.55277596 -.00000397  00000-0 -68509-5 0  9994,2 53902  53.2196  21.6896 0001507  65.4106 294.7043 15.08845013 55592,6917.865,95.437,540.773,538.688,0.0
53902.0,STARLINK-5021,PAYLOAD,2023-09-15 14:51:22,15.08849402,0.000134,53.2191,21.3887,85.5658,274.5487,1.5832e-05,-3.6e-07,0.0,0 STARLINK-5021,1 53902U 22119S   23258.61901166 -.00000036  00000-0  15832-4 0  9997,2 53902  53.2191  21.3887 0001340  85.5658 274.5487 15.08849402 55183,6917.852,95.437,540.644,538.79,0.0
53902.0,STARLINK-5021,PAYLOAD,2023-09-16 08:20:37,15.08836116,0.0001139,53.2189,18.1164,82.6872,277.425,0.00013295,1.828e-05,0.0,0 STARLINK-5021,1 53902U 22119S   23259.34765759  .00001828  00000-0  13295-3 0  9993,2 53902  53.2189  18.1164 0001139  82.6872 277.4250 15.08836116 55294,6917.892,95.438,540.545,538.969,0.0
53902.0,STARLINK-5021,PAYLOAD,2023-09-16 13:06:47,15.08835494,0.0001419,53.2189,17.2265,72.5653,287.5494,0.00015468,2.174e-05,0.0,0 STARLINK-5021,1 53902U 22119S   23259.54637839  .00002174  00000-0  15468-3 0  9991,2 53902  53.2189  17.2265 0001419  72.5653 287.5494 15.08835494 55742,6917.894,95.438,540.741,538.778,0.0
53902.0,STARLINK-5021,PAYLOAD,2023-09-17 12:57:34,15.08842563,0.0001404,53.2191,12.7671,73.9889,286.1257,6.9326e-05,8.16e-06,0.0,0 STARLINK-5021,1 53902U 22119S   23260.53997783  .00000816  00000-0  69326-4 0  9993,2 53902  53.2191  12.7671 0001404  73.9889 286.1257 15.08842563 55899,6917.873,95.437,540.709,538.766,0.0
53902.0,STARLINK-5021,PAYLOAD,2023-09-18 12:48:21,15.08842329,0.0001443,53.219,8.3064,92.3068,267.8089,5.8795e-05,6.48e-06,0.0,0 STARLINK-5021,1 53902U 22119S   23261.53357810  .00000648  00000-0  58795-4 0  9996,2 53902  53.2190   8.3064 0001443  92.3068 267.8089 15.08842329 56049,6917.873,95.437,540.737,538.74,0.0
53902.0,STARLINK-5021,PAYLOAD,2023-09-18 14:23:44,15.08843862,0.0001456,53.2193,8.0094,94.568,265.5479,7.3188e-05,8.77e-06,0.0,0 STARLINK-5021,1 53902U 22119S   23261.59981665  .00000877  00000-0  73188-4 0  9990,2 53902  53.2193   8.0094 0001456  94.5680 265.5479 15.08843862 55635,6917.869,95.437,540.741,538.726,0.0
53902.0,STARLINK-5021,PAYLOAD,2023-09-19 14:14:29,15.08857734,0.0001343,53.2183,3.5494,84.9845,275.1301,0.0002097,3.053e-05,0.0,0 STARLINK-5021,1 53902U 22119S   23262.59340268  .00003053  00000-0  20970-3 0  9998,2 53902  53.2183   3.5494 0001343  84.9845 275.1301 15.08857734 55789,6917.826,95.436,540.62,538.762,0.0
53902.0,STARLINK-5021,PAYLOAD,2023-09-20 06:08:24,15.08818402,0.000146,53.2184,0.5734,95.1851,264.9307,-0.00013735,-2.472e-05,0.0,0 STARLINK-5021,1 53902U 22119S   23263.25584350 -.00002472  00000-0 -13735-3 0  9991,2 53902  53.2184   0.5734 0001460  95.1851 264.9307 15.08818402 55887,6917.946,95.439,540.821,538.801,0.0
53902.0,STARLINK-5021,PAYLOAD,2023-09-20 14:05:20,15.08818772,0.0001388,53.2179,359.0864,85.9198,274.1953,-0.00011226,-2.073e-05,0.0,0 STARLINK-5021,1 53902U 22119S   23263.58704782 -.00002073  00000-0 -11226-3 0  9990,2 53902  53.2179 359.0864 0001388  85.9198 274.1953 15.08818772 56350,6917.945,95.439,540.77,538.85,0.0
53902.0,STARLINK-5021,PAYLOAD,2023-09-21 10:45:19,15.08847139,0.0001602,53.2185,355.2255,83.7113,276.4061,9.4501e-05,1.217e-05,0.0,0 STARLINK-5021,1 53902U 22119S   23264.44814793  .00001217  00000-0  94501-4 0  9995,2 53902  53.2185 355.2255 0001602  83.7113 276.4061 15.08847139 56063,6917.859,95.437,540.832,538.615,0.0
53902.0,STARLINK-5021,PAYLOAD,2023-09-21 12:20:42,15.0885442,0.0001854,53.2182,354.9288,67.4754,292.6434,4.8697e-05,4.87e-06,0.0,0 STARLINK-5021,1 53902U 22119S   23264.51438362  .00000487  00000-0  48697-4 0  9990,2 53902  53.2182 354.9288 0001854  67.4754 292.6434 15.08854420 56493,6917.836,95.437,540.984,538.419,0.0
53902.0,STARLINK-5021,PAYLOAD,2023-09-21 13:56:04,15.08865451,0.0001415,53.2176,354.6251,74.3349,285.7799,0.00014445,2.013e-05,0.0,0 STARLINK-5021,1 53902U 22119S   23264.58061291  .00002013  00000-0  14445-3 0  9990,2 53902  53.2176 354.6251 0001415  74.3349 285.7799 15.08865451 56081,6917.803,95.436,540.646,538.689,0.0
53902.0,STARLINK-5021,PAYLOAD,2023-09-21 23:28:24,15.08858175,0.0001606,53.2175,352.8445,67.3618,292.7544,8.6939e-05,1.097e-05,0.0,0 STARLINK-5021,1 53902U 22119S   23264.97805704  .00001097  00000-0  86939-4 0  9997,2 53902  53.2175 352.8445 0001606  67.3618 292.7544 15.08858175 56146,6917.825,95.436,540.801,538.579,0.0
53902.0,STARLINK-5021,PAYLOAD,2023-09-22 10:36:07,15.08831015,0.0001731,53.2167,350.7632,61.0193,299.0972,0.0003488,5.266e-05,0.0,0 STARLINK-5021,1 53902U 22119S   23265.44175330  .00005266  00000-0  34880-3 0  9994,2 53902  53.2167 350.7632 0001731  61.0193 299.0972 15.08831015 56217,6917.908,95.438,540.97,538.575,0.0
53902.0,STARLINK-5021,PAYLOAD,2023-09-22 12:11:30,15.08832186,0.0001682,53.217,350.4658,61.5487,298.5675,0.000337,5.078e-05,0.0,0 STARLINK-5021,1 53902U 22119S   23265.50799273  .00005078  00000-0  33700-3 0  9990,2 53902  53.2170 350.4658 0001682  61.5487 298.5675 15.08832186 56643,6917.904,95.438,540.933,538.606,0.0
53902.0,STARLINK-5021,PAYLOAD,2023-09-22 23:19:11,15.08843658,0.0001244,53.2163,348.3822,86.3129,273.8005,0.00022331,3.268e-05,0.0,0 STARLINK-5021,1 53902U 22119S   23265.97166589  .00003268  00000-0  22331-3 0  9996,2 53902  53.2163 348.3822 0001244  86.3129 273.8005 15.08843658 56296,6917.869,95.437,540.595,538.874,0.0
53902.0,STARLINK-5021,PAYLOAD,2023-09-23 12:02:16,15.08857192,0.0001548,53.2184,346.0024,83.16,276.9569,-7.1175e-05,-1.421e-05,0.0,0 STARLINK-5021,1 53902U 22119S   23266.50158189 -.00001421  00000-0 -71175-4 0  9995,2 53902  53.2184 346.0024 0001548  83.1600 276.9569 15.08857192 56796,6917.828,95.436,540.764,538.622,0.0
53902.0,STARLINK-5021,PAYLOAD,2023-09-24 10:17:40,15.0883873,0.0001479,53.2183,341.842,81.7983,278.3177,1.4555e-05,-5.6e-07,0.0,0 STARLINK-5021,1 53902U 22119S   23267.42894630 -.00000056  00000-0  14555-4 0  9996,2 53902  53.2183 341.8420 0001479  81.7983 278.3177 15.08838730 56517,6917.884,95.438,540.772,538.726,0.0
53902.0,STARLINK-5021,PAYLOAD,2023-09-24 11:53:03,15.08845424,0.0001586,53.2181,341.5438,88.643,271.4744,-4.0952e-06,-3.53e-06,0.0,0 STARLINK-5021,1 53902U 22119S   23267.49518255 -.00000353  00000-0 -40952-5 0  9991,2 53902  53.2181 341.5438 0001586  88.6430 271.4744 15.08845424 56942,6917.864,95.437,540.826,538.632,0.0
